SL-16 R/B               
1 22566U 93016B   26003.40327529  .00000000  00000+0  24463-4 0  9995
2 22566  71.0089 352.3027 0008094  53.7633 306.4237 14.15296485692937
COSMOS 2242             
1 22626U 93024A   26003.63923559  .00004387  00000+0  38569-3 0  9994
2 22626  82.5200 328.9111 0016857 158.1942 202.0001 14.96222386770663
SL-16 R/B               
1 22803U 93059B   26003.61251428 -.00000106  00000+0 -28598-4 0  9995
2 22803  70.9901 148.3626 0019188 304.7196  55.2119 14.17219346670318
ARIANE 40 R/B           
1 22830U 93061H   26003.61569039  .00000532  00000+0  21073-3 0  9999
2 22830  98.5043  73.7447 0011706 115.2746 244.9652 14.32819107684780
COSMOS 2278             
1 23087U 94023A   26003.60213703  .00000469  00000+0  26949-3 0  9992
2 23087  71.0544 311.2702 0007366 139.7830 220.3839 14.14355246635604
SL-16 R/B               
1 23088U 94023B   26003.60747544  .00000207  00000+0  13155-3 0  9993
2 23088  70.9977 207.5637 0002565 354.7051   5.4044 14.14999421636887
SL-16 R/B               
1 23343U 94074B   26003.66807289  .00000923  00000+0  13065-3 0  9997
2 23343  97.7180  37.0987 0007968  76.1569  38.0583 14.79320442677639
SL-16 R/B               
1 23405U 94077B   26003.61447151 -.00000099  00000+0 -26350-4 0  9990
2 23405  70.9825 129.3957 0004991 266.4338  93.6214 14.15550011607021
ARIANE 40+ R/B          
1 23561U 95021B   26003.64094872  .00000591  00000+0  20260-3 0  9992
2 23561  98.4621  75.9628 0006342 345.4375 139.0030 14.39715883609888
SL-16 R/B               
1 23705U 95058B   26003.61826297  .00000339  00000+0  19753-3 0  9998
2 23705  71.0224 316.8702 0014209 225.8527 134.1429 14.15484495558646
SL-16 R/B               
1 24298U 96051B   26003.58511709  .00000049  00000+0  53175-4 0  9990
2 24298  70.7599 313.0433 0019375 234.5888 125.3422 14.12399307512459
ORBVIEW 2 (SEASTAR)     
1 24883U 97037A   26003.45428028  .00000639  00000+0  23881-3 0  9997
2 24883  98.8472 166.0775 0001377 239.0060 121.0989 14.35437311499111
