CCSDS_OMM_VERS = 2.0
CREATION_DATE  = 
ORIGINATOR     = 

OBJECT_NAME    = SL-16 R/B
OBJECT_ID      = 1993-016B
CENTER_NAME    = EARTH
REF_FRAME      = TEME
TIME_SYSTEM    = UTC
MEAN_ELEMENT_THEORY = SGP/SGP4

EPOCH          = 2026-01-03T09:40:42.985056
MEAN_MOTION    = 14.15296485
ECCENTRICITY   = .00080944
INCLINATION    = 71.0089
RA_OF_ASC_NODE = 352.3027
ARG_OF_PERICENTER = 53.7633
MEAN_ANOMALY   = 306.4237

EPHEMERIS_TYPE = 0
CLASSIFICATION_TYPE = U
NORAD_CAT_ID   = 22566
ELEMENT_SET_NO = 999
REV_AT_EPOCH   = 69293
BSTAR          = .24463199E-4
MEAN_MOTION_DOT = 0
MEAN_MOTION_DDOT = 0

CCSDS_OMM_VERS = 2.0
CREATION_DATE  = 
ORIGINATOR     = 

OBJECT_NAME    = COSMOS 2242
OBJECT_ID      = 1993-024A
CENTER_NAME    = EARTH
REF_FRAME      = TEME
TIME_SYSTEM    = UTC
MEAN_ELEMENT_THEORY = SGP/SGP4

EPOCH          = 2026-01-03T15:20:29.954976
MEAN_MOTION    = 14.96222386
ECCENTRICITY   = .00168577
INCLINATION    = 82.5200
RA_OF_ASC_NODE = 328.9111
ARG_OF_PERICENTER = 158.1942
MEAN_ANOMALY   = 202.0001

EPHEMERIS_TYPE = 0
CLASSIFICATION_TYPE = U
NORAD_CAT_ID   = 22626
ELEMENT_SET_NO = 999
REV_AT_EPOCH   = 77066
BSTAR          = .38568934E-3
MEAN_MOTION_DOT = .4387E-4
MEAN_MOTION_DDOT = 0

CCSDS_OMM_VERS = 2.0
CREATION_DATE  = 
ORIGINATOR     = 

OBJECT_NAME    = SL-16 R/B
OBJECT_ID      = 1993-059B
CENTER_NAME    = EARTH
REF_FRAME      = TEME
TIME_SYSTEM    = UTC
MEAN_ELEMENT_THEORY = SGP/SGP4

EPOCH          = 2026-01-03T14:42:01.233792
MEAN_MOTION    = 14.17219346
ECCENTRICITY   = .00191888
INCLINATION    = 70.9901
RA_OF_ASC_NODE = 148.3626
ARG_OF_PERICENTER = 304.7196
MEAN_ANOMALY   = 55.2119

EPHEMERIS_TYPE = 0
CLASSIFICATION_TYPE = U
NORAD_CAT_ID   = 22803
ELEMENT_SET_NO = 999
REV_AT_EPOCH   = 67031
BSTAR          = -.28597682E-4
MEAN_MOTION_DOT = -.106E-5
MEAN_MOTION_DDOT = 0

CCSDS_OMM_VERS = 2.0
CREATION_DATE  = 
ORIGINATOR     = 

OBJECT_NAME    = ARIANE 40 R/B
OBJECT_ID      = 1993-061H
CENTER_NAME    = EARTH
REF_FRAME      = TEME
TIME_SYSTEM    = UTC
MEAN_ELEMENT_THEORY = SGP/SGP4

EPOCH          = 2026-01-03T14:46:35.649696
MEAN_MOTION    = 14.32819107
ECCENTRICITY   = .00117069
INCLINATION    = 98.5043
RA_OF_ASC_NODE = 73.7447
ARG_OF_PERICENTER = 115.2746
MEAN_ANOMALY   = 244.9652

EPHEMERIS_TYPE = 0
CLASSIFICATION_TYPE = U
NORAD_CAT_ID   = 22830
ELEMENT_SET_NO = 999
REV_AT_EPOCH   = 68478
BSTAR          = .21073008E-3
MEAN_MOTION_DOT = .532E-5
MEAN_MOTION_DDOT = 0

CCSDS_OMM_VERS = 2.0
CREATION_DATE  = 
ORIGINATOR     = 

OBJECT_NAME    = COSMOS 2278
OBJECT_ID      = 1994-023A
CENTER_NAME    = EARTH
REF_FRAME      = TEME
TIME_SYSTEM    = UTC
MEAN_ELEMENT_THEORY = SGP/SGP4

EPOCH          = 2026-01-03T14:27:04.639392
MEAN_MOTION    = 14.14355246
ECCENTRICITY   = .00073669
INCLINATION    = 71.0544
RA_OF_ASC_NODE = 311.2702
ARG_OF_PERICENTER = 139.7830
MEAN_ANOMALY   = 220.3839

EPHEMERIS_TYPE = 0
CLASSIFICATION_TYPE = U
NORAD_CAT_ID   = 23087
ELEMENT_SET_NO = 999
REV_AT_EPOCH   = 63560
BSTAR          = .26948761E-3
MEAN_MOTION_DOT = .469E-5
MEAN_MOTION_DDOT = 0

CCSDS_OMM_VERS = 2.0
CREATION_DATE  = 
ORIGINATOR     = 

OBJECT_NAME    = SL-16 R/B
OBJECT_ID      = 1994-023B
CENTER_NAME    = EARTH
REF_FRAME      = TEME
TIME_SYSTEM    = UTC
MEAN_ELEMENT_THEORY = SGP/SGP4

EPOCH          = 2026-01-03T14:34:45.878016
MEAN_MOTION    = 14.14999421
ECCENTRICITY   = .00025652
INCLINATION    = 70.9977
RA_OF_ASC_NODE = 207.5637
ARG_OF_PERICENTER = 354.7051
MEAN_ANOMALY   = 5.4044

EPHEMERIS_TYPE = 0
CLASSIFICATION_TYPE = U
NORAD_CAT_ID   = 23088
ELEMENT_SET_NO = 999
REV_AT_EPOCH   = 63688
BSTAR          = .1315517E-3
MEAN_MOTION_DOT = .207E-5
MEAN_MOTION_DDOT = 0

CCSDS_OMM_VERS = 2.0
CREATION_DATE  = 
ORIGINATOR     = 

OBJECT_NAME    = SL-16 R/B
OBJECT_ID      = 1994-074B
CENTER_NAME    = EARTH
REF_FRAME      = TEME
TIME_SYSTEM    = UTC
MEAN_ELEMENT_THEORY = SGP/SGP4

EPOCH          = 2026-01-03T16:02:01.497696
MEAN_MOTION    = 14.79320442
ECCENTRICITY   = .00079682
INCLINATION    = 97.7180
RA_OF_ASC_NODE = 37.0987
ARG_OF_PERICENTER = 76.1569
MEAN_ANOMALY   = 38.0583

EPHEMERIS_TYPE = 0
CLASSIFICATION_TYPE = U
NORAD_CAT_ID   = 23343
ELEMENT_SET_NO = 999
REV_AT_EPOCH   = 67763
BSTAR          = .130654E-3
MEAN_MOTION_DOT = .923E-5
MEAN_MOTION_DDOT = 0

CCSDS_OMM_VERS = 2.0
CREATION_DATE  = 
ORIGINATOR     = 

OBJECT_NAME    = SL-16 R/B
OBJECT_ID      = 1994-077B
CENTER_NAME    = EARTH
REF_FRAME      = TEME
TIME_SYSTEM    = UTC
MEAN_ELEMENT_THEORY = SGP/SGP4

EPOCH          = 2026-01-03T14:44:50.338464
MEAN_MOTION    = 14.15550011
ECCENTRICITY   = .00049914
INCLINATION    = 70.9825
RA_OF_ASC_NODE = 129.3957
ARG_OF_PERICENTER = 266.4338
MEAN_ANOMALY   = 93.6214

EPHEMERIS_TYPE = 0
CLASSIFICATION_TYPE = U
NORAD_CAT_ID   = 23405
ELEMENT_SET_NO = 999
REV_AT_EPOCH   = 60702
BSTAR          = -.26349872E-4
MEAN_MOTION_DOT = -.99E-6
MEAN_MOTION_DDOT = 0

CCSDS_OMM_VERS = 2.0
CREATION_DATE  = 
ORIGINATOR     = 

OBJECT_NAME    = ARIANE 40+ R/B
OBJECT_ID      = 1995-021B
CENTER_NAME    = EARTH
REF_FRAME      = TEME
TIME_SYSTEM    = UTC
MEAN_ELEMENT_THEORY = SGP/SGP4

EPOCH          = 2026-01-03T15:22:57.969408
MEAN_MOTION    = 14.39715883
ECCENTRICITY   = .00063423
INCLINATION    = 98.4621
RA_OF_ASC_NODE = 75.9628
ARG_OF_PERICENTER = 345.4375
MEAN_ANOMALY   = 139.0030

EPHEMERIS_TYPE = 0
CLASSIFICATION_TYPE = U
NORAD_CAT_ID   = 23561
ELEMENT_SET_NO = 999
REV_AT_EPOCH   = 60988
BSTAR          = .20259886E-3
MEAN_MOTION_DOT = .591E-5
MEAN_MOTION_DDOT = 0

CCSDS_OMM_VERS = 2.0
CREATION_DATE  = 
ORIGINATOR     = 

OBJECT_NAME    = SL-16 R/B
OBJECT_ID      = 1995-058B
CENTER_NAME    = EARTH
REF_FRAME      = TEME
TIME_SYSTEM    = UTC
MEAN_ELEMENT_THEORY = SGP/SGP4

EPOCH          = 2026-01-03T14:50:17.920608
MEAN_MOTION    = 14.15484495
ECCENTRICITY   = .00142097
INCLINATION    = 71.0224
RA_OF_ASC_NODE = 316.8702
ARG_OF_PERICENTER = 225.8527
MEAN_ANOMALY   = 134.1429

EPHEMERIS_TYPE = 0
CLASSIFICATION_TYPE = U
NORAD_CAT_ID   = 23705
ELEMENT_SET_NO = 999
REV_AT_EPOCH   = 55864
BSTAR          = .19752985E-3
MEAN_MOTION_DOT = .339E-5
MEAN_MOTION_DDOT = 0

CCSDS_OMM_VERS = 2.0
CREATION_DATE  = 
ORIGINATOR     = 

OBJECT_NAME    = SL-16 R/B
OBJECT_ID      = 1996-051B
CENTER_NAME    = EARTH
REF_FRAME      = TEME
TIME_SYSTEM    = UTC
MEAN_ELEMENT_THEORY = SGP/SGP4

EPOCH          = 2026-01-03T14:02:34.116576
MEAN_MOTION    = 14.12399307
ECCENTRICITY   = .00193753
INCLINATION    = 70.7599
RA_OF_ASC_NODE = 313.0433
ARG_OF_PERICENTER = 234.5888
MEAN_ANOMALY   = 125.3422

EPHEMERIS_TYPE = 0
CLASSIFICATION_TYPE = U
NORAD_CAT_ID   = 24298
ELEMENT_SET_NO = 999
REV_AT_EPOCH   = 51245
BSTAR          = .53174876E-4
MEAN_MOTION_DOT = .49E-6
MEAN_MOTION_DDOT = 0

CCSDS_OMM_VERS = 2.0
CREATION_DATE  = 
ORIGINATOR     = 

OBJECT_NAME    = ORBVIEW 2 (SEASTAR)
OBJECT_ID      = 1997-037A
CENTER_NAME    = EARTH
REF_FRAME      = TEME
TIME_SYSTEM    = UTC
MEAN_ELEMENT_THEORY = SGP/SGP4

EPOCH          = 2026-01-03T10:54:09.816192
MEAN_MOTION    = 14.35437311
ECCENTRICITY   = .00013774
INCLINATION    = 98.8472
RA_OF_ASC_NODE = 166.0775
ARG_OF_PERICENTER = 239.0060
MEAN_ANOMALY   = 121.0989

EPHEMERIS_TYPE = 0
CLASSIFICATION_TYPE = U
NORAD_CAT_ID   = 24883
ELEMENT_SET_NO = 999
REV_AT_EPOCH   = 49911
BSTAR          = .23881264E-3
MEAN_MOTION_DOT = .639E-5
MEAN_MOTION_DDOT = 0

